CCSDS_OMM_VERS = 2.0
CREATION_DATE  = 
ORIGINATOR     = 

OBJECT_NAME    = KUIPER-00141
OBJECT_ID      = 2025-228V
CENTER_NAME    = EARTH
REF_FRAME      = TEME
TIME_SYSTEM    = UTC
MEAN_ELEMENT_THEORY = SGP/SGP4

EPOCH          = 2025-11-04T21:29:42.380160
MEAN_MOTION    = 15.34810783
ECCENTRICITY   = .00055937
INCLINATION    = 51.8799
RA_OF_ASC_NODE = 202.9038
ARG_OF_PERICENTER = 215.1480
MEAN_ANOMALY   = 144.9138

EPHEMERIS_TYPE = 0
CLASSIFICATION_TYPE = U
NORAD_CAT_ID   = 65966
ELEMENT_SET_NO = 999
REV_AT_EPOCH   = 460
BSTAR          = .4613175E-3
MEAN_MOTION_DOT = .15464E-3
MEAN_MOTION_DDOT = 0

CCSDS_OMM_VERS = 2.0
CREATION_DATE  = 
ORIGINATOR     = 

OBJECT_NAME    = KUIPER-00146
OBJECT_ID      = 2025-228W
CENTER_NAME    = EARTH
REF_FRAME      = TEME
TIME_SYSTEM    = UTC
MEAN_ELEMENT_THEORY = SGP/SGP4

EPOCH          = 2025-11-04T21:30:24.182208
MEAN_MOTION    = 15.34787867
ECCENTRICITY   = .00056763
INCLINATION    = 51.8806
RA_OF_ASC_NODE = 202.9149
ARG_OF_PERICENTER = 216.0535
MEAN_ANOMALY   = 144.0069

EPHEMERIS_TYPE = 0
CLASSIFICATION_TYPE = U
NORAD_CAT_ID   = 65967
ELEMENT_SET_NO = 999
REV_AT_EPOCH   = 460
BSTAR          = .86334146E-3
MEAN_MOTION_DOT = .29307E-3
MEAN_MOTION_DDOT = 0

CCSDS_OMM_VERS = 2.0
CREATION_DATE  = 
ORIGINATOR     = 

OBJECT_NAME    = KUIPER-00149
OBJECT_ID      = 2025-228X
CENTER_NAME    = EARTH
REF_FRAME      = TEME
TIME_SYSTEM    = UTC
MEAN_ELEMENT_THEORY = SGP/SGP4

EPOCH          = 2025-11-04T21:26:38.705856
MEAN_MOTION    = 15.34963704
ECCENTRICITY   = .00054393
INCLINATION    = 51.8799
RA_OF_ASC_NODE = 202.8914
ARG_OF_PERICENTER = 213.2168
MEAN_ANOMALY   = 146.8477

EPHEMERIS_TYPE = 0
CLASSIFICATION_TYPE = U
NORAD_CAT_ID   = 65968
ELEMENT_SET_NO = 999
REV_AT_EPOCH   = 460
BSTAR          = .64723069E-3
MEAN_MOTION_DOT = .21977E-3
MEAN_MOTION_DDOT = 0

CCSDS_OMM_VERS = 2.0
CREATION_DATE  = 
ORIGINATOR     = 

OBJECT_NAME    = KUIPER-00154
OBJECT_ID      = 2025-228Y
CENTER_NAME    = EARTH
REF_FRAME      = TEME
TIME_SYSTEM    = UTC
MEAN_ELEMENT_THEORY = SGP/SGP4

EPOCH          = 2025-11-04T21:25:14.107296
MEAN_MOTION    = 15.35031989
ECCENTRICITY   = .00057396
INCLINATION    = 51.8797
RA_OF_ASC_NODE = 202.8860
ARG_OF_PERICENTER = 210.5890
MEAN_ANOMALY   = 149.4762

EPHEMERIS_TYPE = 0
CLASSIFICATION_TYPE = U
NORAD_CAT_ID   = 65969
ELEMENT_SET_NO = 999
REV_AT_EPOCH   = 460
BSTAR          = .74473557E-3
MEAN_MOTION_DOT = .25414E-3
MEAN_MOTION_DDOT = 0

CCSDS_OMM_VERS = 2.0
CREATION_DATE  = 
ORIGINATOR     = 

OBJECT_NAME    = KUIPER-00157
OBJECT_ID      = 2025-228Z
CENTER_NAME    = EARTH
REF_FRAME      = TEME
TIME_SYSTEM    = UTC
MEAN_ELEMENT_THEORY = SGP/SGP4

EPOCH          = 2025-11-04T21:35:06.526176
MEAN_MOTION    = 15.34578901
ECCENTRICITY   = .00058998
INCLINATION    = 51.8811
RA_OF_ASC_NODE = 202.9351
ARG_OF_PERICENTER = 226.3703
MEAN_ANOMALY   = 133.6794

EPHEMERIS_TYPE = 0
CLASSIFICATION_TYPE = U
NORAD_CAT_ID   = 65970
ELEMENT_SET_NO = 999
REV_AT_EPOCH   = 460
BSTAR          = .94555492E-3
MEAN_MOTION_DOT = .31932E-3
MEAN_MOTION_DDOT = 0

CCSDS_OMM_VERS = 2.0
CREATION_DATE  = 
ORIGINATOR     = 

OBJECT_NAME    = STRIX-5
OBJECT_ID      = 2025-229A
CENTER_NAME    = EARTH
REF_FRAME      = TEME
TIME_SYSTEM    = UTC
MEAN_ELEMENT_THEORY = SGP/SGP4

EPOCH          = 2025-11-04T20:44:45.566592
MEAN_MOTION    = 15.01741553
ECCENTRICITY   = .00389718
INCLINATION    = 41.9271
RA_OF_ASC_NODE = 89.0563
ARG_OF_PERICENTER = 23.1152
MEAN_ANOMALY   = 337.1416

EPHEMERIS_TYPE = 0
CLASSIFICATION_TYPE = U
NORAD_CAT_ID   = 65971
ELEMENT_SET_NO = 999
REV_AT_EPOCH   = 321
BSTAR          = .39458072E-3
MEAN_MOTION_DOT = .5116E-4
MEAN_MOTION_DDOT = 0

CCSDS_OMM_VERS = 2.0
CREATION_DATE  = 
ORIGINATOR     = 

OBJECT_NAME    = ELECTRON R/B
OBJECT_ID      = 2025-229B
CENTER_NAME    = EARTH
REF_FRAME      = TEME
TIME_SYSTEM    = UTC
MEAN_ELEMENT_THEORY = SGP/SGP4

EPOCH          = 2025-11-04T19:08:59.208864
MEAN_MOTION    = 15.01739399
ECCENTRICITY   = .00389906
INCLINATION    = 41.9271
RA_OF_ASC_NODE = 89.4232
ARG_OF_PERICENTER = 22.6571
MEAN_ANOMALY   = 337.5965

EPHEMERIS_TYPE = 0
CLASSIFICATION_TYPE = U
NORAD_CAT_ID   = 65972
ELEMENT_SET_NO = 999
REV_AT_EPOCH   = 318
BSTAR          = .3584734E-3
MEAN_MOTION_DOT = .463E-4
MEAN_MOTION_DDOT = 0

CCSDS_OMM_VERS = 2.0
CREATION_DATE  = 
ORIGINATOR     = 

OBJECT_NAME    = ELECTRON KICK STAGE R/B
OBJECT_ID      = 2025-229C
CENTER_NAME    = EARTH
REF_FRAME      = TEME
TIME_SYSTEM    = UTC
MEAN_ELEMENT_THEORY = SGP/SGP4

EPOCH          = 2025-11-04T18:51:51.340032
MEAN_MOTION    = 15.02636131
ECCENTRICITY   = .00401067
INCLINATION    = 41.9827
RA_OF_ASC_NODE = 89.4510
ARG_OF_PERICENTER = 22.6852
MEAN_ANOMALY   = 337.5736

EPHEMERIS_TYPE = 0
CLASSIFICATION_TYPE = U
NORAD_CAT_ID   = 65973
ELEMENT_SET_NO = 999
REV_AT_EPOCH   = 317
BSTAR          = .47804933E-3
MEAN_MOTION_DOT = .64E-4
MEAN_MOTION_DDOT = 0

CCSDS_OMM_VERS = 2.0
CREATION_DATE  = 
ORIGINATOR     = 

OBJECT_NAME    = SDA_1664
OBJECT_ID      = 2025-230A
CENTER_NAME    = EARTH
REF_FRAME      = TEME
TIME_SYSTEM    = UTC
MEAN_ELEMENT_THEORY = SGP/SGP4

EPOCH          = 2025-11-04T21:02:38.140512
MEAN_MOTION    = 13.84696410
ECCENTRICITY   = .00034001
INCLINATION    = 81.2994
RA_OF_ASC_NODE = 59.7239
ARG_OF_PERICENTER = 62.1275
MEAN_ANOMALY   = 298.0226

EPHEMERIS_TYPE = 0
CLASSIFICATION_TYPE = U
NORAD_CAT_ID   = 65974
ELEMENT_SET_NO = 999
REV_AT_EPOCH   = 276
BSTAR          = .16847721E-3
MEAN_MOTION_DOT = .201E-5
MEAN_MOTION_DDOT = 0

CCSDS_OMM_VERS = 2.0
CREATION_DATE  = 
ORIGINATOR     = 

OBJECT_NAME    = SDA_1665
OBJECT_ID      = 2025-230B
CENTER_NAME    = EARTH
REF_FRAME      = TEME
TIME_SYSTEM    = UTC
MEAN_ELEMENT_THEORY = SGP/SGP4

EPOCH          = 2025-11-04T22:31:34.778208
MEAN_MOTION    = 13.85426412
ECCENTRICITY   = .00050149
INCLINATION    = 81.3031
RA_OF_ASC_NODE = 59.6541
ARG_OF_PERICENTER = 104.0910
MEAN_ANOMALY   = 256.0805

EPHEMERIS_TYPE = 0
CLASSIFICATION_TYPE = U
NORAD_CAT_ID   = 65975
ELEMENT_SET_NO = 999
REV_AT_EPOCH   = 277
BSTAR          = .13030128E-3
MEAN_MOTION_DOT = .16E-5
MEAN_MOTION_DDOT = 0

CCSDS_OMM_VERS = 2.0
CREATION_DATE  = 
ORIGINATOR     = 

OBJECT_NAME    = SDA_1666
OBJECT_ID      = 2025-230C
CENTER_NAME    = EARTH
REF_FRAME      = TEME
TIME_SYSTEM    = UTC
MEAN_ELEMENT_THEORY = SGP/SGP4

EPOCH          = 2025-11-04T21:04:06.492288
MEAN_MOTION    = 13.84625136
ECCENTRICITY   = .00030464
INCLINATION    = 81.3002
RA_OF_ASC_NODE = 59.7274
ARG_OF_PERICENTER = 59.3296
MEAN_ANOMALY   = 300.8161

EPHEMERIS_TYPE = 0
CLASSIFICATION_TYPE = U
NORAD_CAT_ID   = 65976
ELEMENT_SET_NO = 999
REV_AT_EPOCH   = 276
BSTAR          = .15814886E-3
MEAN_MOTION_DOT = .189E-5
MEAN_MOTION_DDOT = 0

CCSDS_OMM_VERS = 2.0
CREATION_DATE  = 
ORIGINATOR     = 

OBJECT_NAME    = SDA_1667
OBJECT_ID      = 2025-230D
CENTER_NAME    = EARTH
REF_FRAME      = TEME
TIME_SYSTEM    = UTC
MEAN_ELEMENT_THEORY = SGP/SGP4

EPOCH          = 2025-11-04T20:58:55.686432
MEAN_MOTION    = 13.84876062
ECCENTRICITY   = .00039258
INCLINATION    = 81.2998
RA_OF_ASC_NODE = 59.7215
ARG_OF_PERICENTER = 72.6522
MEAN_ANOMALY   = 287.5065

EPHEMERIS_TYPE = 0
CLASSIFICATION_TYPE = U
NORAD_CAT_ID   = 65977
ELEMENT_SET_NO = 999
REV_AT_EPOCH   = 276
BSTAR          = .16216023E-3
MEAN_MOTION_DOT = .195E-5
MEAN_MOTION_DDOT = 0

