KUIPER-00141            
1 65966U 25228V   25308.89562940  .00015464  00000+0  46132-3 0  9990
2 65966  51.8799 202.9038 0005593 215.1480 144.9138 15.34810783  4600
KUIPER-00146            
1 65967U 25228W   25308.89611322  .00029307  00000+0  86334-3 0  9999
2 65967  51.8806 202.9149 0005676 216.0535 144.0069 15.34787867  4606
KUIPER-00149            
1 65968U 25228X   25308.89350354  .00021977  00000+0  64723-3 0  9998
2 65968  51.8799 202.8914 0005439 213.2168 146.8477 15.34963704  4604
KUIPER-00154            
1 65969U 25228Y   25308.89252439  .00025414  00000+0  74474-3 0  9998
2 65969  51.8797 202.8860 0005739 210.5890 149.4762 15.35031989  4606
KUIPER-00157            
1 65970U 25228Z   25308.89938109  .00031932  00000+0  94555-3 0  9999
2 65970  51.8811 202.9351 0005899 226.3703 133.6794 15.34578901  4605
STRIX-5                 
1 65971U 25229A   25308.86441628  .00005116  00000+0  39458-3 0  9999
2 65971  41.9271  89.0563 0038971  23.1152 337.1416 15.01741553  3210
ELECTRON R/B            
1 65972U 25229B   25308.79790751  .00004630  00000+0  35847-3 0  9994
2 65972  41.9271  89.4232 0038990  22.6571 337.5965 15.01739399  3182
ELECTRON KICK STAGE R/B 
1 65973U 25229C   25308.78601088  .00006400  00000+0  47805-3 0  9992
2 65973  41.9827  89.4510 0040106  22.6852 337.5736 15.02636131  3179
SDA_1664                
1 65974U 25230A   25308.87683033  .00000201  00000+0  16848-3 0  9991
2 65974  81.2994  59.7239 0003400  62.1275 298.0226 13.84696410  2767
SDA_1665                
1 65975U 25230B   25308.93859697  .00000160  00000+0  13030-3 0  9994
2 65975  81.3031  59.6541 0005014 104.0910 256.0805 13.85426412  2773
SDA_1666                
1 65976U 25230C   25308.87785292  .00000189  00000+0  15815-3 0  9991
2 65976  81.3002  59.7274 0003046  59.3296 300.8161 13.84625136  2763
SDA_1667                
1 65977U 25230D   25308.87425563  .00000195  00000+0  16216-3 0  9997
2 65977  81.2998  59.7215 0003925  72.6522 287.5065 13.84876062  2768
